NORAD_CAT_ID,OBJECT_NAME,OBJECT_TYPE,EPOCH,MEAN_MOTION,ECCENTRICITY,INCLINATION,RA_OF_ASC_NODE,ARG_OF_PERICENTER,MEAN_ANOMALY,BSTAR,MEAN_MOTION_DOT,MEAN_MOTION_DDOT,TLE_LINE0,TLE_LINE1,TLE_LINE2,SEMIMAJOR_AXIS,PERIOD,APOGEE,PERIGEE,DECAYED
53293.0,STARLINK-4148,PAYLOAD,2022-10-19 06:00:00,15.65564959,0.0001020999999999,53.2169,334.2372,84.06700000000002,220.6154,-0.011653,-0.01068136,0.0,0 STARLINK-4148,1 53293U 22086BD  22292.25001157 -.01068136  00000-0 -11653-1 0  9992,2 53293  53.2169 334.2372 0001021  84.0670 220.6154 15.65564959 14272,6749.751,91.98,372.306,370.927,0.0
53293.0,STARLINK-4148,PAYLOAD,2022-10-19 14:00:01,15.64790199,0.0001036,53.2174,332.6068,67.9427,316.0196,-0.011752,-0.01046573,0.0,0 STARLINK-4148,1 53293U 22086BD  22292.58334491 -.01046573  00000-0 -11752-1 0  9999,2 53293  53.2174 332.6068 0001036  67.9427 316.0196 15.64790199  1300,6751.979,92.025,374.544,373.145,0.0
53293.0,STARLINK-4148,PAYLOAD,2022-10-19 22:00:00,15.64030297,0.0001085,53.2176,330.9759,77.1146,25.2096,-0.012109,-0.0104615,0.0,0 STARLINK-4148,1 53293U 22086BD  22292.91667824 -.01046150  00000-0 -12109-1 0  9993,2 53293  53.2176 330.9759 0001085  77.1146  25.2096 15.64030297  1309,6754.166,92.07,376.764,375.298,0.0
53293.0,STARLINK-4148,PAYLOAD,2022-10-20 06:00:00,15.63271627,0.0001262,53.2177,329.3495,73.3684,106.4028,-0.012492,-0.01063374,0.0,0 STARLINK-4148,1 53293U 22086BD  22293.25001157 -.01063374  00000-0 -12492-1 0  9994,2 53293  53.2177 329.3495 0001262  73.3684 106.4028 15.63271627 14439,6756.351,92.115,379.069,377.36300000000006,0.0
53293.0,STARLINK-4148,PAYLOAD,2022-10-20 14:00:01,15.62510513,0.0001163,53.2173,327.7254,74.3283,181.9776,-0.0128259999999999,-0.01059829,0.0,0 STARLINK-4148,1 53293U 22086BD  22293.58334491 -.01059829  00000-0 -12826-1 0  9991,2 53293  53.2173 327.7254 0001163  74.3283 181.9776 15.62510513  1305,6758.545,92.159,381.196,379.624,0.0
53293.0,STARLINK-4148,PAYLOAD,2022-10-20 22:00:00,15.61751524,0.0001007,53.2173,326.1,81.5954,250.3342,-0.013236,-0.0106144999999999,0.0,0 STARLINK-4148,1 53293U 22086BD  22293.91667824 -.01061450  00000-0 -13236-1 0  9996,2 53293  53.2173 326.1000 0001007  81.5954 250.3342 15.61751524  1307,6760.735,92.204,383.28,381.919,0.0
53293.0,STARLINK-4148,PAYLOAD,2022-10-21 14:00:01,15.60232861,0.0001257,53.2172,322.8606,59.8079,60.627,-0.01403,-0.01060839,0.0,0 STARLINK-4148,1 53293U 22086BD  22294.58334491 -.01060839  00000-0 -14030-1 0  9994,2 53293  53.2172 322.8606 0001257  59.8079  60.6270 15.60232861 14644,6765.121,92.294,387.836,386.136,0.0
53293.0,STARLINK-4148,PAYLOAD,2022-10-21 22:00:00,15.59472811,0.0001223,53.2174,321.2407,73.4259,119.895,-0.0144319999999999,-0.01059874,0.0,0 STARLINK-4148,1 53293U 22086BD  22294.91667824 -.01059874  00000-0 -14432-1 0  9993,2 53293  53.2174 321.2407 0001223  73.4259 119.8950 15.59472811  1303,6767.319,92.339,390.011,388.356,0.0
53293.0,STARLINK-4148,PAYLOAD,2022-10-22 06:00:00,15.58714075,0.0001208,53.2176,319.6258,76.1482,189.1433,-0.014872,-0.01060857,0.0,0 STARLINK-4148,1 53293U 22086BD  22295.25001157 -.01060857  00000-0 -14872-1 0  9993,2 53293  53.2176 319.6258 0001208  76.1482 189.1433 15.58714075 14749,6769.515,92.384,392.197,390.562,0.0
53293.0,STARLINK-4148,PAYLOAD,2022-10-22 14:00:01,15.57953918,0.0001135,53.2164,318.0138,57.8237,278.5254,-0.015275,-0.0105876,0.0,0 STARLINK-4148,1 53293U 22086BD  22295.58334491 -.01058760  00000-0 -15275-1 0  9997,2 53293  53.2164 318.0138 0001135  57.8237 278.5254 15.57953918  1301,6771.717,92.429,394.35,392.81300000000016,0.0
53293.0,STARLINK-4148,PAYLOAD,2022-10-22 22:00:00,15.57194328,0.0001112,53.2174,316.3979,61.3948,345.1036,-0.0157409999999999,-0.01060063,0.0,0 STARLINK-4148,1 53293U 22086BD  22295.91667824 -.01060063  00000-0 -15741-1 0  9990,2 53293  53.2174 316.3979 0001112  61.3948 345.1036 15.57194328 14855,6773.918000000002,92.474,396.537,395.03,0.0
53293.0,STARLINK-4148,PAYLOAD,2022-10-23 14:00:01,15.55684101,0.0001331999999999,53.2161,313.182,66.2539,117.7928,-0.016849,-0.01071258,0.0,0 STARLINK-4148,1 53293U 22086BD  22296.58334491 -.01071258  00000-0 -16849-1 0  9993,2 53293  53.2161 313.1820 0001332  66.2539 117.7928 15.55684101 14950,6778.302,92.564,401.07,399.264,0.0
53293.0,STARLINK-4148,PAYLOAD,2022-10-23 22:00:00,15.54913957,0.0001258,53.2166,311.5731,66.922,184.5394,-0.0170729999999999,-0.01056349,0.0,0 STARLINK-4148,1 53293U 22086BD  22296.91667824 -.01056349  00000-0 -17073-1 0  9993,2 53293  53.2166 311.5731 0001258  66.9220 184.5394 15.54913957  1306,6780.54,92.61,403.258,401.552,0.0
53293.0,STARLINK-4148,PAYLOAD,2022-10-24 14:00:01,15.53400249,0.0001123,53.2163,308.3664,60.2486,323.2881,-0.018172,-0.01062773,0.0,0 STARLINK-4148,1 53293U 22086BD  22297.58334491 -.01062773  00000-0 -18172-1 0  9997,2 53293  53.2163 308.3664 0001123  60.2486 323.2881 15.53400249 15115,6784.944,92.7,407.571,406.047,0.0
53293.0,STARLINK-4148,PAYLOAD,2022-10-24 22:00:00,15.52636106,0.0001304,53.2167,306.7633,56.276,31.9348,-0.018587,-0.0105772,0.0,0 STARLINK-4148,1 53293U 22086BD  22297.91667824 -.01057720  00000-0 -18587-1 0  9999,2 53293  53.2167 306.7633 0001304  56.2760  31.9348 15.52636106  1307,6787.17,92.745,409.92,408.15,0.0
53293.0,STARLINK-4148,PAYLOAD,2022-10-25 14:00:01,15.51144076,0.0001255,53.2162,303.5675,65.5173,149.2823,-0.020352,-0.01093613,0.0,0 STARLINK-4148,1 53293U 22086BD  22298.58334491 -.01093613  00000-0 -20352-1 0  9998,2 53293  53.2162 303.5675 0001255  65.5173 149.2823 15.51144076  1309,6791.522,92.835,414.239,412.534,0.0
53293.0,STARLINK-4148,PAYLOAD,2022-10-25 22:00:01,15.50362609,0.0001226,53.2168,301.9698,65.2026,211.6057,-0.020297,-0.01063517,0.0,0 STARLINK-4148,1 53293U 22086BD  22298.91668981 -.01063517  00000-0 -20297-1 0  9997,2 53293  53.2168 301.9698 0001226  65.2026 211.6057 15.50362609  1300,6793.804,92.881,416.501,414.836,0.0
53293.0,STARLINK-4148,PAYLOAD,2022-10-26 14:00:01,15.48841014,0.0001097999999999,53.2171,298.7838,69.217,328.6544,-0.021321,-0.01058773,0.0,0 STARLINK-4148,1 53293U 22086BD  22299.58334491 -.01058773  00000-0 -21321-1 0  9994,2 53293  53.2171 298.7838 0001098  69.2170 328.6544 15.48841014  1303,6798.252,92.973,420.864,419.371,0.0
53293.0,STARLINK-4148,PAYLOAD,2022-10-26 22:00:00,15.48080539,0.0001289,53.2173,297.1917,59.0959,37.9716,-0.021893,-0.01058495,0.0,0 STARLINK-4148,1 53293U 22086BD  22299.91667824 -.01058495  00000-0 -21893-1 0  9995,2 53293  53.2173 297.1917 0001289  59.0959  37.9716 15.48080539  1308,6800.479,93.018,423.22,421.467,0.0
53293.0,STARLINK-4148,PAYLOAD,2022-10-27 14:00:01,15.46577027,0.0001330999999999,53.2159,294.0189,67.5878,145.1859,-0.023563,-0.01078803,0.0,0 STARLINK-4148,1 53293U 22086BD  22300.58335648 -.01078803  00000-0 -23563-1 0  9998,2 53293  53.2159 294.0189 0001331  67.5878 145.1859 15.46577027  1302,6804.885,93.109,427.656,425.844,0.0
53293.0,STARLINK-4148,PAYLOAD,2022-10-27 22:00:00,15.45801105,0.0001237,53.2172,292.4311,75.8189,193.3562,-0.023643,-0.01055982,0.0,0 STARLINK-4148,1 53293U 22086BD  22300.91667824 -.01055982  00000-0 -23643-1 0  9991,2 53293  53.2172 292.4311 0001237  75.8189 193.3562 15.45801105  1300,6807.1619999999975,93.156,429.869,428.185,0.0
53293.0,STARLINK-4148,PAYLOAD,2022-10-28 00:00:02,15.45611215,0.0001136,53.2174,292.0353,69.3034,303.9072,-0.023773,-0.0105492,0.0,0 STARLINK-4148,1 53293U 22086BD  22301.00002315 -.01054920  00000-0 -23773-1 0  9995,2 53293  53.2174 292.0353 0001136  69.3034 303.9072 15.45611215 15647,6807.72,93.167,430.358,428.811,0.0
53293.0,STARLINK-4148,PAYLOAD,2022-10-28 14:00:01,15.4429136,0.0001157,53.2163,289.269,62.2032,317.2054,-0.0252289999999999,-0.01068471,0.0,0 STARLINK-4148,1 53293U 22086BD  22301.58335648 -.01068471  00000-0 -25229-1 0  9990,2 53293  53.2163 289.2690 0001157  62.2032 317.2054 15.44291360  1300,6811.598000000001,93.247,434.251,432.675,0.0
53293.0,STARLINK-4148,PAYLOAD,2022-10-28 22:00:01,15.43522559,0.0001219,53.2174,287.6867,66.2382,6.8946,-0.025549,-0.01055338,0.0,0 STARLINK-4148,1 53293U 22086BD  22301.91668981 -.01055338  00000-0 -25549-1 0  9999,2 53293  53.2174 287.6867 0001219  66.2382   6.8946 15.43522559 15785,6813.86,93.293,436.555,434.894,0.0
53293.0,STARLINK-4148,PAYLOAD,2022-10-29 12:00:00,15.42193996,0.0001134,53.2172,284.9289,74.1154,0.7628,-0.02671,-0.01069542,0.0,0 STARLINK-4148,1 53293U 22086BD  22302.50001157 -.01069542  00000-0 -26710-1 0  9994,2 53293  53.2172 284.9289 0001134  74.1154   0.7628 15.42193996  1303,6817.772,93.373,440.411,438.864,0.0
53293.0,STARLINK-4148,PAYLOAD,2022-10-29 22:00:01,15.41248836,0.0001405,53.2167,282.96,56.4672,172.3417,-0.027745,-0.01075792,0.0,0 STARLINK-4148,1 53293U 22086BD  22302.91668981 -.01075792  00000-0 -27745-1 0  9996,2 53293  53.2167 282.9600 0001405  56.4672 172.3417 15.41248836  1306,6820.559,93.431,443.383,441.466,0.0
53293.0,STARLINK-4148,PAYLOAD,2022-10-30 00:00:00,15.41054783,0.0001311,53.2173,282.5666,51.1906,280.1588,-0.027754,-0.01069681,0.0,0 STARLINK-4148,1 53293U 22086BD  22303.00001157 -.01069681  00000-0 -27754-1 0  9993,2 53293  53.2173 282.5666 0001311  51.1906 280.1588 15.41054783 15958,6821.132,93.442,443.891,442.103,0.0
53293.0,STARLINK-4148,PAYLOAD,2022-10-30 14:00:01,15.39733473,0.0001226,53.2165,279.8185,60.1933,267.7724,-0.029362,-0.01081869,0.0,0 STARLINK-4148,1 53293U 22086BD  22303.58334491 -.01081869  00000-0 -29362-1 0  9995,2 53293  53.2165 279.8185 0001226  60.1933 267.7724 15.39733473  1303,6825.034000000002,93.523,447.736,446.062,0.0
53293.0,STARLINK-4148,PAYLOAD,2022-10-30 22:00:01,15.38966545,0.0001240999999999,53.2167,278.2485,57.5694,318.7065,-0.029748,-0.01069714,0.0,0 STARLINK-4148,1 53293U 22086BD  22303.91668981 -.01069714  00000-0 -29748-1 0  9999,2 53293  53.2167 278.2485 0001241  57.5694 318.7065 15.38966545  1304,6827.301,93.569,450.013,448.319,0.0
